{
    "links": {
        "self": "http://www.neowsapp.com/rest/v1/neo/3736200?api_key=iIulBulltgU6a56xZRHN4H3l9WmuAYTsLGpBGhQ2"
    },
    "id": "3736200",
    "neo_reference_id": "3736200",
    "name": "(2015 XP128)",
    "designation": "2015 XP128",
    "nasa_jpl_url": "http://ssd.jpl.nasa.gov/sbdb.cgi?sstr=3736200",
    "absolute_magnitude_h": 23.0,
    "estimated_diameter": {
        "kilometers": {
            "estimated_diameter_min": 0.0667659413,
            "estimated_diameter_max": 0.1492931834
        },
        "meters": {
            "estimated_diameter_min": 66.7659413495,
            "estimated_diameter_max": 149.2931834393
        },
        "miles": {
            "estimated_diameter_min": 0.0414864197,
            "estimated_diameter_max": 0.0927664547
        },
        "feet": {
            "estimated_diameter_min": 219.0483710172,
            "estimated_diameter_max": 489.807047955
        }
    },
    "is_potentially_hazardous_asteroid": false,
    "close_approach_data": [
        {
            "close_approach_date": "1973-12-14",
            "close_approach_date_full": "1973-Dec-14 07:34",
            "epoch_date_close_approach": 124702440000,
            "relative_velocity": {
                "kilometers_per_second": "19.911554591",
                "kilometers_per_hour": "71681.59652751",
                "miles_per_hour": "44540.156464552"
            },
            "miss_distance": {
                "astronomical": "0.4377668292",
                "lunar": "170.2912965588",
                "kilometers": "65488985.204973804",
                "miles": "40692968.4483503352"
            },
            "orbiting_body": "Earth"
        },
        {
            "close_approach_date": "2015-10-24",
            "close_approach_date_full": "2015-Oct-24 02:39",
            "epoch_date_close_approach": 1445654340000,
            "relative_velocity": {
                "kilometers_per_second": "5.3367892854",
                "kilometers_per_hour": "19212.4414275009",
                "miles_per_hour": "11937.8639525491"
            },
            "miss_distance": {
                "astronomical": "0.0955769272",
                "lunar": "37.1794246808",
                "kilometers": "14298104.730265064",
                "miles": "8884430.3028793232"
            },
            "orbiting_body": "Earth"
        },
        {
            "close_approach_date": "2018-07-02",
            "close_approach_date_full": "2018-Jul-02 17:07",
            "epoch_date_close_approach": 1530551220000,
            "relative_velocity": {
                "kilometers_per_second": "19.2190969076",
                "kilometers_per_hour": "69188.7488673798",
                "miles_per_hour": "42991.1978726227"
            },
            "miss_distance": {
                "astronomical": "0.4202020258",
                "lunar": "163.4585880362",
                "kilometers": "62861328.029365046",
                "miles": "39060217.9910717948"
            },
            "orbiting_body": "Earth"
        }
    ],
    "orbital_data": {
        "orbit_id": "13",
        "orbit_determination_date": "2017-04-06 08:30:10",
        "first_observation_date": "2015-12-05",
        "last_observation_date": "2015-12-30",
        "data_arc_in_days": 25,
        "observations_used": 67,
        "orbit_uncertainty": "7",
        "minimum_orbit_intersection": ".0182907",
        "jupiter_tisserand_invariant": "5.018",
        "epoch_osculation": "2459000.5",
        "eccentricity": ".2836524225657498",
        "semi_major_axis": "1.278511992094048",
        "inclination": "4.097066630437022",
        "ascending_node_longitude": "292.9979030938493",
        "orbital_period": "528.02639887275",
        "perihelion_distance": ".9158589682572083",
        "perihelion_argument": "71.44849854186847",
        "aphelion_distance": "1.641165015930887",
        "perihelion_time": "2458881.552109643586",
        "mean_anomaly": "81.09677966807246",
        "mean_motion": ".6817840940690487",
        "equinox": "J2000",
        "orbit_class": {
            "orbit_class_type": "APO",
            "orbit_class_description": "Near-Earth asteroid orbits which cross the Earth’s orbit similar to that of 1862 Apollo",
            "orbit_class_range": "a (semi-major axis) > 1.0 AU; q (perihelion) < 1.017 AU"
        }
    },
    "is_sentry_object": false
}